GLOBALSTAR M068         
1 32266U 07048D   25363.41573145 -.00000068  00000+0  19937-3 0  9993
2 32266  51.9899  67.1277 0001310 179.8123 263.7796 12.62836357842229
GLOBALSTAR M079         
1 37188U 10054A   25363.14700222 -.00000079  00000+0  13955-3 0  9996
2 37188  52.0031 266.2994 0000941  45.2521 102.5370 12.62269324701071
GLOBALSTAR M074         
1 37189U 10054B   25363.17706479 -.00000079  00000+0  13830-3 0  9992
2 37189  52.0017 265.5005 0000980  66.6659  97.4352 12.62264630701687
GLOBALSTAR M076         
1 37190U 10054C   25363.11948916 -.00000092  00000+0  65272-4 0  9995
2 37190  52.0031 265.8655 0001091  59.6094  81.8110 12.62268532701390
GLOBALSTAR M077         
1 37191U 10054D   25363.17623132 -.00000070  00000+0  15171-3 0  9990
2 37191  51.9961 251.1316 0001498  52.1388 117.0082 11.68176657701276
GLOBALSTAR M075         
1 37192U 10054E   25358.21427079 -.00000088  00000+0  85706-4 0  9993
2 37192  52.0022 322.9423 0000480 109.7567 352.3949 12.62261317699849
GLOBALSTAR M073         
1 37193U 10054F   25363.05628288 -.00000073  00000+0  17120-3 0  9995
2 37193  52.0035 222.1752 0001157  66.7336  86.7347 12.62268514702445
GLOBALSTAR M083         
1 37739U 11033A   25363.43515259 -.00000072  00000+0  17647-3 0  9997
2 37739  51.9832 169.4804 0001033  83.6579 294.2222 12.62266196671510
GLOBALSTAR M088         
1 37740U 11033B   25363.50677595 -.00000105  00000+0 -56032-5 0  9990
2 37740  52.0225  75.2788 0000652 130.9128 332.0135 12.62271100667067
GLOBALSTAR M091         
1 37741U 11033C   25363.52980934 -.00000105  00000+0 -77462-5 0  9997
2 37741  52.0010  38.4262 0000270 140.1174   6.6803 12.62268235667856
GLOBALSTAR M085         
1 37742U 11033D   25363.18524748 -.00000095  00000+0  49037-4 0  9990
2 37742  52.0148 350.6182 0000203  15.0258  65.9054 12.62267506668327
GLOBALSTAR M081         
1 37743U 11033E   25351.59018587 -.00000087  00000+0  92331-4 0  9998
2 37743  51.9980  28.5496 0000222  94.7932  71.3857 12.62270971667009
GLOBALSTAR M089         
1 37744U 11033F   25363.17700937 -.00000086  00000+0  10049-3 0  9997
2 37744  51.9951 307.4641 0000768  71.5537  32.8730 12.62262864669318
GLOBALSTAR M084         
1 38040U 11080A   25363.48831674 -.00000076  00000+0  15709-3 0  9993
2 38040  51.9983 173.9068 0001370  94.4533 284.4454 12.62266991647333
GLOBALSTAR M080         
1 38041U 11080B   25363.46053144 -.00000075  00000+0  16185-3 0  9998
2 38041  52.0030 175.6509 0000669 108.0263 274.4116 12.62265326647458
GLOBALSTAR M082         
1 38042U 11080C   25363.56812109 -.00000107  00000+0 -17545-4 0  9993
2 38042  52.0061 130.8055 0000635 123.4152 317.8630 12.62266323648174
GLOBALSTAR M092         
1 38043U 11080D   25363.08398735 -.00000079  00000+0  14102-3 0  9997
2 38043  52.0060 222.6690 0001019  78.5126  81.4208 12.62268888646561
GLOBALSTAR M090         
1 38044U 11080E   25363.51489528 -.00000104  00000+0 -31859-5 0  9997
2 38044  52.0111 124.8692 0000794 103.1169 335.0333 12.62265527648280
GLOBALSTAR M086         
1 38045U 11080F   25362.76628883 -.00000086  00000+0  99742-4 0  9995
2 38045  51.9887 127.3551 0001489  61.8520 103.4902 12.62281545648135
GLOBALSTAR M097         
1 39072U 13005A   25362.83740912 -.00000098  00000+0  29692-4 0  9991
2 39072  52.0062  41.8950 0000339  94.4104 265.6802 12.62267713595399
GLOBALSTAR M093         
1 39073U 13005B   25363.36557010 -.00000099  00000+0  28452-4 0  9990
2 39073  52.0120  33.5705 0000224  42.5572 317.5313 12.62271265595411
GLOBALSTAR M094         
1 39074U 13005C   25363.20711556 -.00000096  00000+0  42392-4 0  9997
2 39074  51.9980 308.3401 0000645  32.7697 327.3210 12.62265489597009
GLOBALSTAR M096         
1 39075U 13005D   25362.74502507 -.00000088  00000+0  86262-4 0  9995
2 39075  52.0094 358.4109 0000227  22.1519 337.9357 12.62269615595867
GLOBALSTAR M078         
1 39076U 13005E   25363.51083225 -.00000207  00000+0 -57851-3 0  9998
2 39076  51.9884  80.3263 0000617 212.1580 147.9249 12.62270545594588
GLOBALSTAR M095         
1 39077U 13005F   25363.37877362 -.00000102  00000+0  94438-5 0  9993
2 39077  52.0094  78.0917 0000185 151.2320 208.8557 12.62267370594423
GLOBALSTAR M087         
1 52888U 22064A   25363.07513172 -.00000079  00000+0  13765-3 0  9991
2 52888  51.9970 220.3521 0000940  65.8612 294.2353 12.62262047169657
